{
  "norad_id": 58247,
  "name": "STARLINK-30850",
  "history": [
    {
      "epoch": "2026-04-10T01:34:55.973568Z",
      "apogee_km": 483.6340572525851,
      "perigee_km": 482.47053677159784,
      "latitude_deg": -3.5073651472279634e-05,
      "longitude_deg": -114.05516990411998,
      "height_km": 482.84607164478604,
      "semi_major_axis_km": 6861.189297012091,
      "eccentricity": 8.479e-05,
      "inclination_deg": 43.002,
      "raan_deg": 107.9832,
      "arg_perigee_deg": 268.2933,
      "mean_anomaly_deg": 91.7821,
      "mean_motion_rev_day": 15.27578931
    },
    {
      "epoch": "2026-04-11T16:48:50.914656Z",
      "apogee_km": 483.62741124787135,
      "perigee_km": 482.5131511854024,
      "latitude_deg": 4.742347862491816e-05,
      "longitude_deg": 6.623695514909794,
      "height_km": 482.776160054683,
      "semi_major_axis_km": 6861.207281216637,
      "eccentricity": 8.12e-05,
      "inclination_deg": 43.0019,
      "raan_deg": 98.7521,
      "arg_perigee_deg": 277.2722,
      "mean_anomaly_deg": 82.8038,
      "mean_motion_rev_day": 15.27572925
    },
    {
      "epoch": "2026-04-13T00:11:58.346880Z",
      "apogee_km": 483.7499004536603,
      "perigee_km": 482.37299514915594,
      "latitude_deg": 1.9416309759199012e-05,
      "longitude_deg": -112.83235541175159,
      "height_km": 482.8170096973738,
      "semi_major_axis_km": 6861.198447801408,
      "eccentricity": 0.00010034,
      "inclination_deg": 43.0034,
      "raan_deg": 91.366,
      "arg_perigee_deg": 271.763,
      "mean_anomaly_deg": 88.3107,
      "mean_motion_rev_day": 15.27575875
    },
    {
      "epoch": "2026-04-14T15:25:53.973120Z",
      "apogee_km": 483.6916145690666,
      "perigee_km": 482.5142257987636,
      "latitude_deg": 2.747127686849026e-05,
      "longitude_deg": 7.843172879794241,
      "height_km": 482.707575083437,
      "semi_major_axis_km": 6861.239920183915,
      "eccentricity": 8.58e-05,
      "inclination_deg": 43.0045,
      "raan_deg": 82.1345,
      "arg_perigee_deg": 286.995,
      "mean_anomaly_deg": 73.0808,
      "mean_motion_rev_day": 15.27562025
    },
    {
      "epoch": "2026-04-15T07:07:27.325056Z",
      "apogee_km": 483.693338494626,
      "perigee_km": 482.40069142620723,
      "latitude_deg": -3.818121105661421e-05,
      "longitude_deg": 128.11746551805032,
      "height_km": 482.74206957713426,
      "semi_major_axis_km": 6861.184014960417,
      "eccentricity": 9.42e-05,
      "inclination_deg": 43.0036,
      "raan_deg": 78.4423,
      "arg_perigee_deg": 277.2588,
      "mean_anomaly_deg": 82.8156,
      "mean_motion_rev_day": 15.27580695
    },
    {
      "epoch": "2026-04-16T05:05:38.311008Z",
      "apogee_km": 483.72553356969365,
      "perigee_km": 482.31487964801454,
      "latitude_deg": -2.229376207172588e-06,
      "longitude_deg": 152.49946659199063,
      "height_km": 482.75522077177635,
      "semi_major_axis_km": 6861.157206608854,
      "eccentricity": 0.0001028,
      "inclination_deg": 43.0023,
      "raan_deg": 73.2723,
      "arg_perigee_deg": 273.3837,
      "mean_anomaly_deg": 86.6897,
      "mean_motion_rev_day": 15.27589648
    },
    {
      "epoch": "2026-04-17T21:53:42.765792Z",
      "apogee_km": 483.55585710600735,
      "perigee_km": 482.45176232690847,
      "latitude_deg": 3.6596783683678186e-05,
      "longitude_deg": -110.79579834227405,
      "height_km": 482.7728645362373,
      "semi_major_axis_km": 6861.140809716458,
      "eccentricity": 8.046e-05,
      "inclination_deg": 43.0037,
      "raan_deg": 63.6712,
      "arg_perigee_deg": 270.7823,
      "mean_anomaly_deg": 89.2937,
      "mean_motion_rev_day": 15.27595124
    },
    {
      "epoch": "2026-04-18T13:35:16.249920Z",
      "apogee_km": 483.65123917057736,
      "perigee_km": 482.4326937861297,
      "latitude_deg": 7.761736204703439e-06,
      "longitude_deg": 9.477980210064617,
      "height_km": 482.82161901372314,
      "semi_major_axis_km": 6861.178966478353,
      "eccentricity": 8.88e-05,
      "inclination_deg": 43.0029,
      "raan_deg": 59.979,
      "arg_perigee_deg": 269.7112,
      "mean_anomaly_deg": 90.3638,
      "mean_motion_rev_day": 15.27582381
    },
    {
      "epoch": "2026-04-19T13:07:37.369056Z",
      "apogee_km": 483.5592151698229,
      "perigee_km": 482.5602249273834,
      "latitude_deg": 6.281158055226908e-05,
      "longitude_deg": 9.884021236753206,
      "height_km": 482.76380004473975,
      "semi_major_axis_km": 6861.196720048602,
      "eccentricity": 7.28e-05,
      "inclination_deg": 43.003,
      "raan_deg": 54.4397,
      "arg_perigee_deg": 278.3301,
      "mean_anomaly_deg": 81.7469,
      "mean_motion_rev_day": 15.27576452
    },
    {
      "epoch": "2026-04-20T12:39:58.870080Z",
      "apogee_km": 483.63889528731306,
      "perigee_km": 482.5120097541103,
      "latitude_deg": -6.223921024639393e-05,
      "longitude_deg": 10.28817361739711,
      "height_km": 482.80285260032275,
      "semi_major_axis_km": 6861.212452520711,
      "eccentricity": 8.212e-05,
      "inclination_deg": 43.0042,
      "raan_deg": 48.9003,
      "arg_perigee_deg": 275.0176,
      "mean_anomaly_deg": 85.0581,
      "mean_motion_rev_day": 15.27571198
    },
    {
      "epoch": "2026-04-21T12:12:16.763904Z",
      "apogee_km": 483.73405677861774,
      "perigee_km": 482.24148769566636,
      "latitude_deg": 5.2336301384377045e-05,
      "longitude_deg": 10.706452017709136,
      "height_km": 482.5969232293337,
      "semi_major_axis_km": 6861.124772237142,
      "eccentricity": 0.00010877,
      "inclination_deg": 43.0068,
      "raan_deg": 43.3597,
      "arg_perigee_deg": 283.0124,
      "mean_anomaly_deg": 77.0607,
      "mean_motion_rev_day": 15.2760048
    },
    {
      "epoch": "2026-04-22T02:19:42.275712Z",
      "apogee_km": 484.1154574962602,
      "perigee_km": 481.95926484151914,
      "latitude_deg": 1.5937286031987308e-06,
      "longitude_deg": 154.94785525773847,
      "height_km": 482.74524375948704,
      "semi_major_axis_km": 6861.174361168889,
      "eccentricity": 0.00015713,
      "inclination_deg": 43.0048,
      "raan_deg": 40.0375,
      "arg_perigee_deg": 273.6962,
      "mean_anomaly_deg": 86.371,
      "mean_motion_rev_day": 15.27583919
    },
    {
      "epoch": "2026-04-23T11:17:00.762144Z",
      "apogee_km": 484.3123348768959,
      "perigee_km": 481.7550393383963,
      "latitude_deg": 5.6612626131858796e-05,
      "longitude_deg": 11.512864779617765,
      "height_km": 482.7972295029685,
      "semi_major_axis_km": 6861.170687107646,
      "eccentricity": 0.00018636,
      "inclination_deg": 43.0075,
      "raan_deg": 32.2829,
      "arg_perigee_deg": 270.6435,
      "mean_anomaly_deg": 89.4204,
      "mean_motion_rev_day": 15.27585146
    },
    {
      "epoch": "2026-04-24T10:49:21.336960Z",
      "apogee_km": 483.65173697805676,
      "perigee_km": 482.5127745815962,
      "latitude_deg": 1.9380405301067363e-05,
      "longitude_deg": 11.92288096490099,
      "height_km": 482.6272434265765,
      "semi_major_axis_km": 6861.219255779826,
      "eccentricity": 8.3e-05,
      "inclination_deg": 43.0039,
      "raan_deg": 26.7454,
      "arg_perigee_deg": 293.9991,
      "mean_anomaly_deg": 66.0774,
      "mean_motion_rev_day": 15.27568926
    },
    {
      "epoch": "2026-04-25T10:21:42.729120Z",
      "apogee_km": 483.76547813025536,
      "perigee_km": 482.40832804222555,
      "latitude_deg": 1.602815261070446e-05,
      "longitude_deg": 12.326419171465265,
      "height_km": 482.675430616014,
      "semi_major_axis_km": 6861.22390308624,
      "eccentricity": 9.89e-05,
      "inclination_deg": 43.0055,
      "raan_deg": 21.2048,
      "arg_perigee_deg": 286.1218,
      "mean_anomaly_deg": 73.9525,
      "mean_motion_rev_day": 15.27567374
    },
    {
      "epoch": "2026-04-26T03:37:25.150656Z",
      "apogee_km": 483.56132541228,
      "perigee_km": 482.5041563786026,
      "latitude_deg": -9.080166199734426e-06,
      "longitude_deg": 108.62791978230729,
      "height_km": 482.5796584007193,
      "semi_major_axis_km": 6861.169740895441,
      "eccentricity": 7.704e-05,
      "inclination_deg": 43.0053,
      "raan_deg": 17.142,
      "arg_perigee_deg": 295.7678,
      "mean_anomaly_deg": 64.3094,
      "mean_motion_rev_day": 15.27585462
    },
    {
      "epoch": "2026-04-27T09:26:23.487360Z",
      "apogee_km": 483.80877750092077,
      "perigee_km": 482.2348276716084,
      "latitude_deg": -1.4993419909566743e-05,
      "longitude_deg": 13.143936659421465,
      "height_km": 482.6068047591208,
      "semi_major_axis_km": 6861.158802586265,
      "eccentricity": 0.0001147,
      "inclination_deg": 43.007,
      "raan_deg": 10.1256,
      "arg_perigee_deg": 284.1409,
      "mean_anomaly_deg": 75.9315,
      "mean_motion_rev_day": 15.27589115
    },
    {
      "epoch": "2026-04-28T13:41:13.615008Z",
      "apogee_km": 483.45828039108073,
      "perigee_km": 482.6733587885192,
      "latitude_deg": -1.85405636335813e-05,
      "longitude_deg": -58.36840507531031,
      "height_km": 482.5231286537256,
      "semi_major_axis_km": 6861.202819589799,
      "eccentricity": 5.72e-05,
      "inclination_deg": 43.0011,
      "raan_deg": 3.4822,
      "arg_perigee_deg": 324.2729,
      "mean_anomaly_deg": 35.8084,
      "mean_motion_rev_day": 15.27574415
    },
    {
      "epoch": "2026-04-29T08:31:06.292416Z",
      "apogee_km": 483.33469997987777,
      "perigee_km": 482.79787943449173,
      "latitude_deg": 7.092792265298438e-06,
      "longitude_deg": 13.956359474083254,
      "height_km": 482.62219945344987,
      "semi_major_axis_km": 6861.203289707184,
      "eccentricity": 3.912e-05,
      "inclination_deg": 43.0021,
      "raan_deg": 359.0498,
      "arg_perigee_deg": 325.0445,
      "mean_anomaly_deg": 35.0381,
      "mean_motion_rev_day": 15.27574258
    }
  ]
}